{
    "links": {
        "self": "http://www.neowsapp.com/rest/v1/neo/3299723?api_key=iIulBulltgU6a56xZRHN4H3l9WmuAYTsLGpBGhQ2"
    },
    "id": "3299723",
    "neo_reference_id": "3299723",
    "name": "(2005 VS5)",
    "designation": "2005 VS5",
    "nasa_jpl_url": "http://ssd.jpl.nasa.gov/sbdb.cgi?sstr=3299723",
    "absolute_magnitude_h": 22.0,
    "estimated_diameter": {
        "kilometers": {
            "estimated_diameter_min": 0.1058168859,
            "estimated_diameter_max": 0.2366137501
        },
        "meters": {
            "estimated_diameter_min": 105.8168859331,
            "estimated_diameter_max": 236.6137501138
        },
        "miles": {
            "estimated_diameter_min": 0.0657515442,
            "estimated_diameter_max": 0.1470249225
        },
        "feet": {
            "estimated_diameter_min": 347.1682720448,
            "estimated_diameter_max": 776.2918559233
        }
    },
    "is_potentially_hazardous_asteroid": false,
    "close_approach_data": [
        {
            "close_approach_date": "2005-10-13",
            "close_approach_date_full": "2005-Oct-13 18:11",
            "epoch_date_close_approach": 1129227060000,
            "relative_velocity": {
                "kilometers_per_second": "12.4622409305",
                "kilometers_per_hour": "44864.0673497316",
                "miles_per_hour": "27876.7867373929"
            },
            "miss_distance": {
                "astronomical": "0.1722359982",
                "lunar": "66.9998032998",
                "kilometers": "25766138.468043834",
                "miles": "16010336.0348955492"
            },
            "orbiting_body": "Earth"
        }
    ],
    "orbital_data": {
        "orbit_id": "6",
        "orbit_determination_date": "2017-04-06 09:09:54",
        "first_observation_date": "2005-11-06",
        "last_observation_date": "2005-11-12",
        "data_arc_in_days": 6,
        "observations_used": 15,
        "orbit_uncertainty": "8",
        "minimum_orbit_intersection": ".171726",
        "jupiter_tisserand_invariant": "3.686",
        "epoch_osculation": "2453683.5",
        "eccentricity": ".4637704619720684",
        "semi_major_axis": "1.961996870602302",
        "inclination": "18.16782608363214",
        "ascending_node_longitude": "38.77229914364074",
        "orbital_period": "1003.796997665549",
        "perihelion_distance": "1.05208067553532",
        "perihelion_argument": "302.1856889387139",
        "aphelion_distance": "2.871913065669284",
        "perihelion_time": "2453621.143755156718",
        "mean_anomaly": "22.36333461425729",
        "mean_motion": ".3586382513966702",
        "equinox": "J2000",
        "orbit_class": {
            "orbit_class_type": "AMO",
            "orbit_class_description": "Near-Earth asteroid orbits similar to that of 1221 Amor",
            "orbit_class_range": "1.017 AU < q (perihelion) < 1.3 AU"
        }
    },
    "is_sentry_object": false
}